[{"OBJECT_NAME":"STARLINK-35192","OBJECT_ID":"2025-225Z","EPOCH":"2026-03-09T11:47:37.546656","MEAN_MOTION":15.30184746,"ECCENTRICITY":0.00012311,"INCLINATION":53.1576,"RA_OF_ASC_NODE":166.8921,"ARG_OF_PERICENTER":72.4318,"MEAN_ANOMALY":287.6817,"EPHEMERIS_TYPE":0,"CLASSIFICATION_TYPE":"U","NORAD_CAT_ID":65933,"ELEMENT_SET_NO":999,"REV_AT_EPOCH":2437,"BSTAR":0.00074029022,"MEAN_MOTION_DOT":0.0002162,"MEAN_MOTION_DDOT":0},{"OBJECT_NAME":"OBJECT F","OBJECT_ID":"2021-022F","EPOCH":"2026-03-09T23:37:37.165152","MEAN_MOTION":15.31317672,"ECCENTRICITY":0.00120882,"INCLINATION":97.3982,"RA_OF_ASC_NODE":329.8375,"ARG_OF_PERICENTER":85.9268,"MEAN_ANOMALY":274.3355,"EPHEMERIS_TYPE":0,"CLASSIFICATION_TYPE":"U","NORAD_CAT_ID":47937,"ELEMENT_SET_NO":999,"REV_AT_EPOCH":27452,"BSTAR":0.00038690553,"MEAN_MOTION_DOT":0.00011656,"MEAN_MOTION_DDOT":0}]
